[{"OBJECT_NAME":"STARLINK-1494","OBJECT_ID":"2020-038AG","EPOCH":"2026-03-09T11:55:54.806304","MEAN_MOTION":15.73709706,"ECCENTRICITY":0.00054124,"INCLINATION":53.048,"RA_OF_ASC_NODE":152.5788,"ARG_OF_PERICENTER":2.9213,"MEAN_ANOMALY":357.1836,"EPHEMERIS_TYPE":0,"CLASSIFICATION_TYPE":"U","NORAD_CAT_ID":45760,"ELEMENT_SET_NO":999,"REV_AT_EPOCH":31736,"BSTAR":0.00067102324,"MEAN_MOTION_DOT":0.00096828,"MEAN_MOTION_DDOT":0},{"OBJECT_NAME":"STARLINK-11367 [DTC]","OBJECT_ID":"2024-220K","EPOCH":"2026-03-09T06:57:58.957344","MEAN_MOTION":15.70862559,"ECCENTRICITY":0.00015286,"INCLINATION":43.001,"RA_OF_ASC_NODE":45.1864,"ARG_OF_PERICENTER":293.6848,"MEAN_ANOMALY":66.386,"EPHEMERIS_TYPE":0,"CLASSIFICATION_TYPE":"U","NORAD_CAT_ID":62097,"ELEMENT_SET_NO":999,"REV_AT_EPOCH":7499,"BSTAR":0.0018552647,"MEAN_MOTION_DOT":0.00244989,"MEAN_MOTION_DDOT":0}]
