STARLINK-1494           
1 45760U 20038AG  26068.49716211  .00096828  00000+0  67102-3 0  9999
2 45760  53.0480 152.5788 0005412   2.9213 357.1836 15.73709706317367
STARLINK-11367 [DTC]    
1 62097U 24220K   26068.29026571  .00244989  00000+0  18553-2 0  9997
2 62097  43.0010  45.1864 0001528 293.6848  66.3860 15.70862559 74994
